[{"OBJECT_NAME":"STARLINK-31630","OBJECT_ID":"2024-050T","EPOCH":"2026-03-09T13:39:04.940352","MEAN_MOTION":15.30200807,"ECCENTRICITY":0.0001409,"INCLINATION":53.16,"RA_OF_ASC_NODE":168.5079,"ARG_OF_PERICENTER":92.3163,"MEAN_ANOMALY":267.7999,"EPHEMERIS_TYPE":0,"CLASSIFICATION_TYPE":"U","NORAD_CAT_ID":59271,"ELEMENT_SET_NO":999,"REV_AT_EPOCH":11071,"BSTAR":-5.7526e-5,"MEAN_MOTION_DOT":-2.063e-5,"MEAN_MOTION_DDOT":0},{"OBJECT_NAME":"STARLINK-34077","OBJECT_ID":"2025-101R","EPOCH":"2026-03-09T03:18:42.312672","MEAN_MOTION":15.27604249,"ECCENTRICITY":0.00012169,"INCLINATION":43.0039,"RA_OF_ASC_NODE":0.8363,"ARG_OF_PERICENTER":287.6209,"MEAN_ANOMALY":72.4509,"EPHEMERIS_TYPE":0,"CLASSIFICATION_TYPE":"U","NORAD_CAT_ID":64009,"ELEMENT_SET_NO":999,"REV_AT_EPOCH":4697,"BSTAR":0.0012077547,"MEAN_MOTION_DOT":0.00033147,"MEAN_MOTION_DDOT":0}]
